[Satellite]
VERSION=1.1
NAME=COMSATBW-1
NICKNAME=COMSATBW-1
TLE1=1 35943U 09054B   15055.01667035 -.00000001  00000-0  10000-3 0  9992
TLE2=2 35943   0.0654  78.2951 0002095 266.6288 237.6101  1.00272898 19835
